[{"OBJECT_NAME":"STARLINK-36624","OBJECT_ID":"2026-020V","EPOCH":"2026-03-26T22:14:59.801856","MEAN_MOTION":15.28446346,"ECCENTRICITY":0.0001262,"INCLINATION":43.005,"RA_OF_ASC_NODE":42.0885,"ARG_OF_PERICENTER":254.7462,"MEAN_ANOMALY":105.3251,"EPHEMERIS_TYPE":0,"CLASSIFICATION_TYPE":"U","NORAD_CAT_ID":67636,"ELEMENT_SET_NO":999,"REV_AT_EPOCH":875,"BSTAR":0.00091309,"MEAN_MOTION_DOT":0.00025626,"MEAN_MOTION_DDOT":0},{"OBJECT_NAME":"STARLINK-36610","OBJECT_ID":"2026-020W","EPOCH":"2026-03-26T07:01:21.681120","MEAN_MOTION":15.2760129,"ECCENTRICITY":9.65e-5,"INCLINATION":43.0025,"RA_OF_ASC_NODE":45.9384,"ARG_OF_PERICENTER":286.8255,"MEAN_ANOMALY":73.249,"EPHEMERIS_TYPE":0,"CLASSIFICATION_TYPE":"U","NORAD_CAT_ID":67637,"ELEMENT_SET_NO":999,"REV_AT_EPOCH":865,"BSTAR":0.00074957,"MEAN_MOTION_DOT":0.00020435,"MEAN_MOTION_DDOT":0},{"OBJECT_NAME":"STARLINK-36599","OBJECT_ID":"2026-020X","EPOCH":"2026-03-26T22:00:34.804800","MEAN_MOTION":15.27590813,"ECCENTRICITY":7.01e-5,"INCLINATION":43.0004,"RA_OF_ASC_NODE":42.8788,"ARG_OF_PERICENTER":240.5465,"MEAN_ANOMALY":119.5317,"EPHEMERIS_TYPE":0,"CLASSIFICATION_TYPE":"U","NORAD_CAT_ID":67638,"ELEMENT_SET_NO":999,"REV_AT_EPOCH":874,"BSTAR":0.0010886,"MEAN_MOTION_DOT":0.00029825,"MEAN_MOTION_DDOT":0},{"OBJECT_NAME":"STARLINK-36595","OBJECT_ID":"2026-020Y","EPOCH":"2026-03-26T07:12:27.584928","MEAN_MOTION":15.27606405,"ECCENTRICITY":0.0001559,"INCLINATION":43.0025,"RA_OF_ASC_NODE":45.9907,"ARG_OF_PERICENTER":275.8842,"MEAN_ANOMALY":84.1832,"EPHEMERIS_TYPE":0,"CLASSIFICATION_TYPE":"U","NORAD_CAT_ID":67639,"ELEMENT_SET_NO":999,"REV_AT_EPOCH":865,"BSTAR":0.00086489,"MEAN_MOTION_DOT":0.00023633,"MEAN_MOTION_DDOT":0},{"OBJECT_NAME":"STARLINK-36570","OBJECT_ID":"2026-020Z","EPOCH":"2026-03-26T05:22:53.095296","MEAN_MOTION":15.28455676,"ECCENTRICITY":0.0001991,"INCLINATION":43.0017,"RA_OF_ASC_NODE":46.2809,"ARG_OF_PERICENTER":258.0413,"MEAN_ANOMALY":102.0216,"EPHEMERIS_TYPE":0,"CLASSIFICATION_TYPE":"U","NORAD_CAT_ID":67640,"ELEMENT_SET_NO":999,"REV_AT_EPOCH":864,"BSTAR":0.00075452,"MEAN_MOTION_DOT":0.00021123,"MEAN_MOTION_DDOT":0},{"OBJECT_NAME":"STARLINK-36514","OBJECT_ID":"2026-020AA","EPOCH":"2026-03-26T20:00:03.000384","MEAN_MOTION":15.27549233,"ECCENTRICITY":0.0001194,"INCLINATION":43.0004,"RA_OF_ASC_NODE":43.3157,"ARG_OF_PERICENTER":242.8503,"MEAN_ANOMALY":30.5362,"EPHEMERIS_TYPE":0,"CLASSIFICATION_TYPE":"U","NORAD_CAT_ID":67641,"ELEMENT_SET_NO":999,"REV_AT_EPOCH":604,"BSTAR":0.0023615,"MEAN_MOTION_DOT":0.00065238,"MEAN_MOTION_DDOT":0},{"OBJECT_NAME":"STARLINK-36556","OBJECT_ID":"2026-020AB","EPOCH":"2026-03-26T06:09:45.796320","MEAN_MOTION":15.27592392,"ECCENTRICITY":9.24e-5,"INCLINATION":43.0004,"RA_OF_ASC_NODE":46.5314,"ARG_OF_PERICENTER":269.206,"MEAN_ANOMALY":90.8686,"EPHEMERIS_TYPE":0,"CLASSIFICATION_TYPE":"U","NORAD_CAT_ID":67642,"ELEMENT_SET_NO":999,"REV_AT_EPOCH":864,"BSTAR":0.00071209,"MEAN_MOTION_DOT":0.00019392,"MEAN_MOTION_DDOT":0},{"OBJECT_NAME":"STARLINK-36533","OBJECT_ID":"2026-020AC","EPOCH":"2026-03-26T05:25:01.075296","MEAN_MOTION":15.28429702,"ECCENTRICITY":0.0002632,"INCLINATION":43.0023,"RA_OF_ASC_NODE":46.3009,"ARG_OF_PERICENTER":251.6174,"MEAN_ANOMALY":108.4392,"EPHEMERIS_TYPE":0,"CLASSIFICATION_TYPE":"U","NORAD_CAT_ID":67643,"ELEMENT_SET_NO":999,"REV_AT_EPOCH":864,"BSTAR":0.00078567,"MEAN_MOTION_DOT":0.00021992,"MEAN_MOTION_DDOT":0},{"OBJECT_NAME":"STARLINK-36623","OBJECT_ID":"2026-020AD","EPOCH":"2026-03-26T06:43:58.166112","MEAN_MOTION":15.28424294,"ECCENTRICITY":0.0001574,"INCLINATION":43.0019,"RA_OF_ASC_NODE":45.8448,"ARG_OF_PERICENTER":248.8374,"MEAN_ANOMALY":111.231,"EPHEMERIS_TYPE":0,"CLASSIFICATION_TYPE":"U","NORAD_CAT_ID":67644,"ELEMENT_SET_NO":999,"REV_AT_EPOCH":865,"BSTAR":0.0008742,"MEAN_MOTION_DOT":0.00024503,"MEAN_MOTION_DDOT":0},{"OBJECT_NAME":"STARLINK-36619","OBJECT_ID":"2026-020AE","EPOCH":"2026-03-26T20:48:22.718304","MEAN_MOTION":15.28413826,"ECCENTRICITY":6.37e-5,"INCLINATION":43.0009,"RA_OF_ASC_NODE":42.5051,"ARG_OF_PERICENTER":301.8629,"MEAN_ANOMALY":58.2161,"EPHEMERIS_TYPE":0,"CLASSIFICATION_TYPE":"U","NORAD_CAT_ID":67645,"ELEMENT_SET_NO":999,"REV_AT_EPOCH":874,"BSTAR":0.00083758,"MEAN_MOTION_DOT":0.00023454,"MEAN_MOTION_DDOT":0},{"OBJECT_NAME":"STARLINK-36719","OBJECT_ID":"2026-022A","EPOCH":"2026-03-26T13:23:38.233824","MEAN_MOTION":15.33463302,"ECCENTRICITY":2.75e-5,"INCLINATION":97.2837,"RA_OF_ASC_NODE":119.5923,"ARG_OF_PERICENTER":111.6484,"MEAN_ANOMALY":248.4788,"EPHEMERIS_TYPE":0,"CLASSIFICATION_TYPE":"U","NORAD_CAT_ID":67648,"ELEMENT_SET_NO":999,"REV_AT_EPOCH":815,"BSTAR":0.00093268,"MEAN_MOTION_DOT":0.00030173,"MEAN_MOTION_DDOT":0},{"OBJECT_NAME":"STARLINK-36342","OBJECT_ID":"2026-022B","EPOCH":"2026-03-26T20:00:03.000384","MEAN_MOTION":15.63766594,"ECCENTRICITY":0.0001552,"INCLINATION":97.285,"RA_OF_ASC_NODE":120.6168,"ARG_OF_PERICENTER":76.464,"MEAN_ANOMALY":335.1525,"EPHEMERIS_TYPE":0,"CLASSIFICATION_TYPE":"U","NORAD_CAT_ID":67649,"ELEMENT_SET_NO":999,"REV_AT_EPOCH":598,"BSTAR":-0.02382,"MEAN_MOTION_DOT":-0.01960441,"MEAN_MOTION_DDOT":0},{"OBJECT_NAME":"STARLINK-36703","OBJECT_ID":"2026-022C","EPOCH":"2026-03-26T12:54:07.377696","MEAN_MOTION":15.34297199,"ECCENTRICITY":9.79e-5,"INCLINATION":97.2858,"RA_OF_ASC_NODE":119.6185,"ARG_OF_PERICENTER":105.5928,"MEAN_ANOMALY":254.5423,"EPHEMERIS_TYPE":0,"CLASSIFICATION_TYPE":"U","NORAD_CAT_ID":67650,"ELEMENT_SET_NO":999,"REV_AT_EPOCH":815,"BSTAR":0.00082978,"MEAN_MOTION_DOT":0.00027542,"MEAN_MOTION_DDOT":0},{"OBJECT_NAME":"STARLINK-36696","OBJECT_ID":"2026-022D","EPOCH":"2026-03-26T13:00:09.234720","MEAN_MOTION":15.33450044,"ECCENTRICITY":0.0001668,"INCLINATION":97.2826,"RA_OF_ASC_NODE":119.6132,"ARG_OF_PERICENTER":90.064,"MEAN_ANOMALY":270.0794,"EPHEMERIS_TYPE":0,"CLASSIFICATION_TYPE":"U","NORAD_CAT_ID":67651,"ELEMENT_SET_NO":999,"REV_AT_EPOCH":815,"BSTAR":0.00076485,"MEAN_MOTION_DOT":0.00024703,"MEAN_MOTION_DDOT":0},{"OBJECT_NAME":"STARLINK-36699","OBJECT_ID":"2026-022E","EPOCH":"2026-03-26T01:15:23.469408","MEAN_MOTION":15.33458078,"ECCENTRICITY":0.00012124,"INCLINATION":97.2851,"RA_OF_ASC_NODE":119.2094,"ARG_OF_PERICENTER":87.4751,"MEAN_ANOMALY":272.6631,"EPHEMERIS_TYPE":0,"CLASSIFICATION_TYPE":"U","NORAD_CAT_ID":67652,"ELEMENT_SET_NO":999,"REV_AT_EPOCH":808,"BSTAR":0.00063990588,"MEAN_MOTION_DOT":0.00020649,"MEAN_MOTION_DDOT":0},{"OBJECT_NAME":"STARLINK-36694","OBJECT_ID":"2026-022F","EPOCH":"2026-03-26T16:00:00.999936","MEAN_MOTION":15.33467067,"ECCENTRICITY":0.0001494,"INCLINATION":97.2909,"RA_OF_ASC_NODE":119.7189,"ARG_OF_PERICENTER":93.3728,"MEAN_ANOMALY":190.8157,"EPHEMERIS_TYPE":0,"CLASSIFICATION_TYPE":"U","NORAD_CAT_ID":67653,"ELEMENT_SET_NO":999,"REV_AT_EPOCH":600,"BSTAR":-0.0010294,"MEAN_MOTION_DOT":-0.00033187,"MEAN_MOTION_DDOT":0},{"OBJECT_NAME":"STARLINK-36620","OBJECT_ID":"2026-022G","EPOCH":"2026-03-26T02:02:34.924416","MEAN_MOTION":15.34299091,"ECCENTRICITY":8.18e-5,"INCLINATION":97.2842,"RA_OF_ASC_NODE":119.1621,"ARG_OF_PERICENTER":58.1041,"MEAN_ANOMALY":302.0282,"EPHEMERIS_TYPE":0,"CLASSIFICATION_TYPE":"U","NORAD_CAT_ID":67654,"ELEMENT_SET_NO":999,"REV_AT_EPOCH":808,"BSTAR":0.00060612078,"MEAN_MOTION_DOT":0.00020079,"MEAN_MOTION_DDOT":0},{"OBJECT_NAME":"STARLINK-36720","OBJECT_ID":"2026-022H","EPOCH":"2026-03-26T12:24:54.679392","MEAN_MOTION":15.33453698,"ECCENTRICITY":0.0001081,"INCLINATION":97.2851,"RA_OF_ASC_NODE":119.6467,"ARG_OF_PERICENTER":81.4781,"MEAN_ANOMALY":278.6584,"EPHEMERIS_TYPE":0,"CLASSIFICATION_TYPE":"U","NORAD_CAT_ID":67655,"ELEMENT_SET_NO":999,"REV_AT_EPOCH":815,"BSTAR":0.00081068,"MEAN_MOTION_DOT":0.00026195,"MEAN_MOTION_DDOT":0},{"OBJECT_NAME":"STARLINK-36688","OBJECT_ID":"2026-022J","EPOCH":"2026-03-26T13:35:23.250912","MEAN_MOTION":15.3343963,"ECCENTRICITY":0.0001228,"INCLINATION":97.2859,"RA_OF_ASC_NODE":119.7344,"ARG_OF_PERICENTER":93.3678,"MEAN_ANOMALY":266.7705,"EPHEMERIS_TYPE":0,"CLASSIFICATION_TYPE":"U","NORAD_CAT_ID":67656,"ELEMENT_SET_NO":999,"REV_AT_EPOCH":816,"BSTAR":0.00068948,"MEAN_MOTION_DOT":0.00022246,"MEAN_MOTION_DDOT":0},{"OBJECT_NAME":"STARLINK-36706","OBJECT_ID":"2026-022K","EPOCH":"2026-03-26T08:22:09.795072","MEAN_MOTION":15.33458221,"ECCENTRICITY":0.0002002,"INCLINATION":97.2853,"RA_OF_ASC_NODE":119.4166,"ARG_OF_PERICENTER":91.4343,"MEAN_ANOMALY":268.7129,"EPHEMERIS_TYPE":0,"CLASSIFICATION_TYPE":"U","NORAD_CAT_ID":67657,"ELEMENT_SET_NO":999,"REV_AT_EPOCH":812,"BSTAR":0.00078286,"MEAN_MOTION_DOT":0.00025295,"MEAN_MOTION_DDOT":0},{"OBJECT_NAME":"STARLINK-36701","OBJECT_ID":"2026-022L","EPOCH":"2026-03-26T13:05:07.585152","MEAN_MOTION":15.34300059,"ECCENTRICITY":6.0e-5,"INCLINATION":97.2823,"RA_OF_ASC_NODE":119.6087,"ARG_OF_PERICENTER":89.2888,"MEAN_ANOMALY":270.8424,"EPHEMERIS_TYPE":0,"CLASSIFICATION_TYPE":"U","NORAD_CAT_ID":67658,"ELEMENT_SET_NO":999,"REV_AT_EPOCH":815,"BSTAR":0.00093944,"MEAN_MOTION_DOT":0.0003121,"MEAN_MOTION_DDOT":0},{"OBJECT_NAME":"STARLINK-36642","OBJECT_ID":"2026-022M","EPOCH":"2026-03-26T20:00:03.000384","MEAN_MOTION":15.3343304,"ECCENTRICITY":0.0001254,"INCLINATION":97.2849,"RA_OF_ASC_NODE":119.935,"ARG_OF_PERICENTER":76.4299,"MEAN_ANOMALY":167.3723,"EPHEMERIS_TYPE":0,"CLASSIFICATION_TYPE":"U","NORAD_CAT_ID":67659,"ELEMENT_SET_NO":999,"REV_AT_EPOCH":603,"BSTAR":0.00044229,"MEAN_MOTION_DOT":0.00014225,"MEAN_MOTION_DDOT":0},{"OBJECT_NAME":"STARLINK-36673","OBJECT_ID":"2026-022N","EPOCH":"2026-03-26T20:00:03.000384","MEAN_MOTION":15.34270188,"ECCENTRICITY":0.0001579,"INCLINATION":97.2848,"RA_OF_ASC_NODE":119.9223,"ARG_OF_PERICENTER":99.326,"MEAN_ANOMALY":114.949,"EPHEMERIS_TYPE":0,"CLASSIFICATION_TYPE":"U","NORAD_CAT_ID":67660,"ELEMENT_SET_NO":999,"REV_AT_EPOCH":603,"BSTAR":0.00063192,"MEAN_MOTION_DOT":0.00020921,"MEAN_MOTION_DDOT":0}]
